{"type": "FeatureCollection", "features": [ {"type": "Feature", "properties": {"norad_id": 64902, "name": "CO3D 2", "group": "resource", "lat": -23.059102955477556, "lon": -105.28207667071143, "alt_km": 511.179095576078, "timestamp": "2025-12-27T20:30:58.945548+00:00", "meta": {"OBJECT_NAME": "CO3D 2", "OBJECT_ID": "2025-156D", "EPOCH": "2025-12-27T11:43:36.590880", "MEAN_MOTION": 15.20204292, "ECCENTRICITY": 7.88e-05, "INCLINATION": 97.434, "RA_OF_ASC_NODE": 77.5433, "ARG_OF_PERICENTER": 57.3354, "MEAN_ANOMALY": 302.7957, "EPHEMERIS_TYPE": 0, "CLASSIFICATION_TYPE": "U", "NORAD_CAT_ID": 64902, "ELEMENT_SET_NO": 999, "REV_AT_EPOCH": 2344, "BSTAR": 0.00065115, "MEAN_MOTION_DOT": 0.00014056, "MEAN_MOTION_DDOT": 0}, "tle": {"line1": "1 64902U 25156D   25361.48861795  .00014056  00000+0  65115-3 0  9991", "line2": "2 64902  97.4340  77.5433 0000788  57.3354 302.7957 15.20204292 23442"}}, "geometry": {"type": "Point", "coordinates": [-105.28207667071143, -23.059102955477556]}}, {"type": "Feature", "properties": {"norad_id": 64903, "name": "CO3D 1", "group": "resource", "lat": -22.18375968537592, "lon": -105.14809453923644, "alt_km": 511.12120531404344, "timestamp": "2025-12-27T20:30:58.945558+00:00", "meta": {"OBJECT_NAME": "CO3D 1", "OBJECT_ID": "2025-156E", "EPOCH": "2025-12-27T11:43:50.503872", "MEAN_MOTION": 15.20200641, "ECCENTRICITY": 8.9e-05, "INCLINATION": 97.434, "RA_OF_ASC_NODE": 77.5431, "ARG_OF_PERICENTER": 67.1825, "MEAN_ANOMALY": 292.9504, "EPHEMERIS_TYPE": 0, "CLASSIFICATION_TYPE": "U", "NORAD_CAT_ID": 64903, "ELEMENT_SET_NO": 999, "REV_AT_EPOCH": 2344, "BSTAR": 0.00035529, "MEAN_MOTION_DOT": 7.631e-05, "MEAN_MOTION_DDOT": 0}, "tle": {"line1": "1 64903U 25156E   25361.48877898  .00007631  00000+0  35529-3 0  9990", "line2": "2 64903  97.4340  77.5431 0000890  67.1825 292.9504 15.20200641 23449"}}, "geometry": {"type": "Point", "coordinates": [-105.14809453923644, -22.18375968537592]}}, {"type": "Feature", "properties": {"norad_id": 66514, "name": "SENTINEL-6B", "group": "resource", "lat": -43.01793925461309, "lon": 106.5278251446055, "alt_km": 1338.870719434829, "timestamp": "2025-12-27T20:30:58.945568+00:00", "meta": {"OBJECT_NAME": "SENTINEL-6B", "OBJECT_ID": "2025-264A", "EPOCH": "2025-12-27T11:23:55.153824", "MEAN_MOTION": 12.8092958, "ECCENTRICITY": 0.0007928, "INCLINATION": 66.0403, "RA_OF_ASC_NODE": 131.8289, "ARG_OF_PERICENTER": 269.996, "MEAN_ANOMALY": 90.0146, "EPHEMERIS_TYPE": 0, "CLASSIFICATION_TYPE": "U", "NORAD_CAT_ID": 66514, "ELEMENT_SET_NO": 999, "REV_AT_EPOCH": 517, "BSTAR": 7.1888e-05, "MEAN_MOTION_DOT": -4.4e-07, "MEAN_MOTION_DDOT": 0}, "tle": {"line1": "1 66514U 25264A   25361.47494391 -.00000044  00000+0  71888-4 0  9993", "line2": "2 66514  66.0403 131.8289 0007928 269.9960  90.0146 12.80929580  5179"}}, "geometry": {"type": "Point", "coordinates": [106.5278251446055, -43.01793925461309]}}]}